{"fetched_at":"2026-04-06T20:40:46Z","count":16190,"tles":[{"name":"CZ-6A DEB","line1":"1 60664U 24140BR  24249.26090218  .00003283  00000+0  75707-3 0  9996","line2":"2 60664  89.0612 347.8847 0115739 335.3072  24.2619 14.51036846  3948","category":"Other"},{"name":"STARLINK-36051","line1":"1 66793U 25278C   26094.94865849  .00024195  00000+0  88494-3 0  9995","line2":"2 66793  43.0014 326.1940 0000955 297.8533  62.2222 15.27614438 19227","category":"Starlink"},{"name":"STARLINK-33983","line1":"1 63948U 25098Y   26095.59729777  .00000980  00000+0  89951-4 0  9991","line2":"2 63948  70.0028 206.5815 0002911 271.1756  88.9070 14.98327356 50586","category":"Starlink"},{"name":"STARLINK-32545","line1":"1 62135U 24222X   26094.97034286  .00033488  00000+0  12205-2 0  9996","line2":"2 62135  43.0026 348.1619 0001952 268.2393  91.8235 15.27590861 76810","category":"Starlink"},{"name":"STARLINK-36348","line1":"1 67851U 26034B   26095.45300762  .00084978  00000+0  15185-2 0  9998","line2":"2 67851  53.1600  80.6436 0001273  58.1349 301.9784 15.49326203  8122","category":"Starlink"},{"name":"STARLINK-34601","line1":"1 65084U 25167G   26095.44284416  .00025788  00000+0  87878-3 0  9999","line2":"2 65084  53.1594 262.5520 0000510  65.4197 294.6857 15.30236308 37576","category":"Starlink"},{"name":"PANDORE","line1":"1 63244U 25052AL  26095.59118058  .00004834  00000+0  45105-3 0  9998","line2":"2 63244  97.6985 348.3463 0006630  80.5056 279.6913 14.94648128 57764","category":"Other"},{"name":"UNKNOWN","line1":"1 87416U 81053    23336.08378231  .00035414  00000+0  12514-1 0  9992","line2":"2 87416  82.8354 259.4979 0013695 262.6178  97.3455 14.34399128502665","category":"Other"},{"name":"STARLINK-35601","line1":"1 66149U 25240D   26095.56191412  .00030267  00000+0  10290-2 0  9991","line2":"2 66149  53.1597 297.9298 0001127  74.1586 285.9539 15.30227304 26103","category":"Starlink"},{"name":"STARLINK-11249 [DTC]","line1":"1 60728U 24152J   26095.40993416 -.00006358  00000+0 -47714-4 0  9995","line2":"2 60728  53.1582 344.3975 0001254  69.4586 290.6567 15.69680799 93034","category":"Starlink"},{"name":"STARLINK-36083","line1":"1 66857U 25281K   26095.57274105  .00026413  00000+0  96651-3 0  9998","line2":"2 66857  42.9989 191.9389 0000563 258.3122 101.7666 15.27559621 20295","category":"Starlink"},{"name":"STARLINK-34078","line1":"1 64012U 25101U   26095.59773446  .00036817  00000+0  13420-2 0  9995","line2":"2 64012  43.0001 205.7208 0001834 273.2742  86.7899 15.27548959 51176","category":"Starlink"},{"name":"STARLINK-32667","line1":"1 62201U 24229K   26095.35345223  .00022262  00000+0  81687-3 0  9995","line2":"2 62201  43.0007 119.7538 0001888 271.4893  88.5743 15.27546394 74642","category":"Starlink"},{"name":"STARLINK-36723","line1":"1 67915U 26036M   26095.43359811  .00025811  00000+0  94381-3 0  9995","line2":"2 67915  43.0013  94.0927 0001120 276.2868  83.7856 15.27593416  7811","category":"Starlink"},{"name":"KUIPER-00110","line1":"1 65148U 25171S   26095.57740950  .00005478  00000+0  74670-3 0  9999","line2":"2 65148  51.9013  49.2389 0000702 355.9225   4.1732 14.79949778 36720","category":"Other"},{"name":"STARLINK-11575 [DTC]","line1":"1 63308U 25057B   26095.30907104  .00240340  00000+0  18243-2 0  9997","line2":"2 63308  42.9994 104.1243 0001568 132.4732 227.6269 15.70821129 61362","category":"Starlink"},{"name":"NOOR-3","line1":"1 57962U 23150A   23362.47018727  .00039099  00000+0  79624-3 0  9992","line2":"2 57962  60.0128 352.2291 0022980  29.3164 330.9211 15.45728577 14193","category":"Other"},{"name":"STARLINK-34149","line1":"1 64140U 25111T   26095.56213669  .00030398  00000+0  11100-2 0  9992","line2":"2 64140  43.0015 286.0647 0001639 262.0721  97.9945 15.27568443 49575","category":"Starlink"},{"name":"CZ-6A DEB","line1":"1 60857U 24140JL  24249.30565549  .00003413  00000+0  10122-2 0  9993","line2":"2 60857  88.9918 347.6073 0061236 311.2525  48.3410 14.42061322  3006","category":"Other"},{"name":"STARLINK-36103","line1":"1 66985U 25288AC  26095.43055274  .00011670  00000+0  43319-3 0  9998","line2":"2 66985  43.0067 232.7245 0001673 279.1745  80.8917 15.27559914 19374","category":"Starlink"},{"name":"STARLINK-31231","line1":"1 59034U 24038M   26095.07795718  .00000390  00000+0  23677-4 0  9994","line2":"2 59034  42.9975 234.5636 0000706 309.1499  50.9290 15.27568283118727","category":"Starlink"},{"name":"STARLINK-34995","line1":"1 65285U 25184N   26095.10404702  .00008727  00000+0  60809-3 0  9995","line2":"2 65285  97.6025 148.6702 0000695 155.4003 204.7257 15.05664697 35276","category":"Starlink"},{"name":"HULIANWANG DIGUI-08","line1":"1 62330U 24240H   26095.59279719  .00000059  00000+0  10262-3 0  9994","line2":"2 62330  86.5091   7.8578 0002066  69.0240 291.1115 13.24412190 63034","category":"Other"},{"name":"STARLINK-36902","line1":"1 68043U 26041D   26095.24492550  .07217312  00000+0  35109-1 0  9998","line2":"2 68043  53.1574 289.4239 0012762 356.9837   3.1105 15.77434596  5415","category":"Starlink"},{"name":"STARLINK-32145","line1":"1 60154U 24120V   26095.56581139 -.00000702  00000+0 -11618-4 0  9996","line2":"2 60154  53.1603 194.8978 0000879  83.4025 276.7075 15.30158204100495","category":"Starlink"},{"name":"STARLINK-35522","line1":"1 66341U 25253Y   26095.24285125  .00052679  00000+0  19086-2 0  9992","line2":"2 66341  43.0032  62.7004 0001897 258.2179 101.8460 15.27607261 24308","category":"Starlink"},{"name":"STARLINK-33761","line1":"1 63455U 25069Y   26095.51214860  .00014371  00000+0  49657-3 0  9993","line2":"2 63455  53.1619  17.7104 0001067 121.4350 238.6756 15.30187241 57517","category":"Starlink"},{"name":"STARLINK-30514","line1":"1 58028U 23156A   26095.63050361  .00000210  00000+0  19219-4 0  9994","line2":"2 58028  53.1601 313.0321 0000699  93.8380 266.2701 15.30185870140444","category":"Starlink"},{"name":"STARLINK-34311","line1":"1 64206U 25117D   26095.21800467  .00014508  00000+0  50108-3 0  9998","line2":"2 64206  53.1595 276.6419 0001410  87.0201 273.0961 15.30194167 48611","category":"Starlink"},{"name":"STARLINK-32356","line1":"1 60921U 24154U   26095.45094374  .00007288  00000+0  25808-3 0  9992","line2":"2 60921  53.1583 159.4331 0001376  97.5479 262.5678 15.30185160 90442","category":"Starlink"},{"name":"STARLINK-36078","line1":"1 67050U 25294W   26095.11712020  .00029509  00000+0  10777-2 0  9994","line2":"2 67050  42.9990 248.5857 0000963 307.8145  52.2619 15.27576786 18848","category":"Starlink"},{"name":"STARLINK-34895","line1":"1 65349U 25189AC  26095.25267462  .00035065  00000+0  11918-2 0  9998","line2":"2 65349  53.1577  83.3594 0001131 105.5324 254.5802 15.30164430 35130","category":"Starlink"},{"name":"STARLINK-11434 [DTC]","line1":"1 62420U 24249M   26095.62153750  .00351881  00000+0  26241-2 0  9998","line2":"2 62420  42.9998   5.5555 0002214 251.9082 108.1545 15.70905495 73715","category":"Starlink"},{"name":"STARLINK-37005","line1":"1 68107U 26044G   26095.58336806 -.02099068  00000+0 -54565-1 0  9990","line2":"2 68107  97.2851  56.8479 0001860 106.9712 142.7794 15.42569094  5673","category":"Starlink"},{"name":"STARLINK-32148","line1":"1 60263U 24131J   26095.24274668 -.00000721  00000+0 -12237-4 0  9999","line2":"2 60263  53.1602 289.1163 0000980 108.9400 251.1707 15.30189163 95830","category":"Starlink"},{"name":"STARLINK-35683","line1":"1 66405U 25257AB  26095.39906773  .00033416  00000+0  11353-2 0  9999","line2":"2 66405  53.1588  92.8948 0001344  83.3068 276.8086 15.30198009 23753","category":"Starlink"},{"name":"STARLINK-33787","line1":"1 63519U 25071AC  26095.50580670  .00042036  00000+0  14234-2 0  9992","line2":"2 63519  53.1617  17.5948 0001155 105.0019 255.1110 15.30199723 56478","category":"Starlink"},{"name":"STARLINK-30615","line1":"1 58092U 23160T   26095.51462237  .00012629  00000+0  47941-3 0  9995","line2":"2 58092  43.0035 286.7910 0001679 277.4770  82.5890 15.26759210137046","category":"Starlink"},{"name":"STARLINK-34219","line1":"1 64270U 25120Q   26095.41311633  .00025765  00000+0  88002-3 0  9998","line2":"2 64270  53.1592 352.8441 0000617  64.1680 295.9385 15.30163147 48006","category":"Starlink"},{"name":"CZ-6A DEB","line1":"1 60985U 24140ML  24249.26866189  .00044670  00000+0  33489-2 0  9995","line2":"2 60985  89.1123 347.9689 0240719 319.9126  38.4545 14.82219455  2084","category":"Other"},{"name":"STARLINK-36180","line1":"1 67114U 25299N   26095.49316916  .00013402  00000+0  49525-3 0  9994","line2":"2 67114  43.0103  17.7785 0002067 276.5022  83.5594 15.27606500 17213","category":"Starlink"},{"name":"NOAA 13","line1":"1 22739U 93050A   26095.47493000  .00000173  00000+0  11426-3 0  9996","line2":"2 22739  98.6975  42.4814 0009188 344.0461  16.0421 14.13645835683102","category":"Weather"},{"name":"SWOT","line1":"1 54754U 22173A   26095.60510492  .00000043  00000+0  30825-4 0  9997","line2":"2 54754  77.6086 133.2928 0000691 203.0661 157.0460 14.00168299168999","category":"Other"},{"name":"STARLINK-31329","line1":"1 59169U 24044T   26095.63291310  .00000756  00000+0  36996-4 0  9995","line2":"2 59169  43.0014 315.0834 0001234 264.4092  95.6619 15.27582132117680","category":"Starlink"},{"name":"STARLINK-35003","line1":"1 65413U 25192K   26095.56039688  .00024730  00000+0  84395-3 0  9992","line2":"2 65413  53.1582 107.8622 0001224  93.2535 266.8606 15.30214104 33491","category":"Starlink"},{"name":"FENGYUN 1C DEB","line1":"1 33706U 99025DGT 23177.17771545  .00030298  00000+0  44525-2 0  9994","line2":"2 33706  98.9445 164.4266 0088416 149.9992 210.6321 14.72733633815355","category":"Weather"},{"name":"FALCON 9 R/B","line1":"1 62484U 25001B   26094.15302747 -.00000310  00000+0  92567-3 0  9998","line2":"2 62484  25.2213 225.3803 7895930 337.2112   1.4872  1.41762642  6454","category":"Other"},{"name":"STARLINK-37034","line1":"1 68171U 26050E   26095.55421411  .00292649  00000+0  14272-2 0  9990","line2":"2 68171  53.1566 147.1723 0001406 108.6053 251.5123 15.81014987  4726","category":"Starlink"}]}